[
  {
    "OBJECT_NAME": "STARLINK-4287",
    "OBJECT_ID": "22076AL",
    "EPOCH": "2025-11-11T06:04:24.038400",
    "MEAN_MOTION": 15.08852061,
    "ECCENTRICITY": 0.0001389,
    "INCLINATION": 53.2159,
    "RA_OF_ASC_NODE": 255.8024,
    "ARG_OF_PERICENTER": 95.9491,
    "MEAN_ANOMALY": 264.1659,
    "EPHEMERIS_TYPE": 0,
    "CLASSIFICATION_TYPE": "U",
    "NORAD_CAT_ID": 53020,
    "ELEMENT_SET_NO": 999,
    "REV_AT_EPOCH": 18510,
    "BSTAR": 0.00036616,
    "MEAN_MOTION_DOT": 5.546e-05,
    "MEAN_MOTION_DDOT": 0.0,
    "TLE_LINE1": "1 53020U 22076AL  25315.25305600  .00005546  00000+0  36616-3 0  9998",
    "TLE_LINE2": "2 53020  53.2159 255.8024 0001389  95.9491 264.1659 15.08852061185105",
    "COMMENT": "Grouped by shell and plane from TLE"
  },
  {
    "OBJECT_NAME": "STARLINK-4216",
    "OBJECT_ID": "22076AN",
    "EPOCH": "2025-11-11T05:48:26.927712",
    "MEAN_MOTION": 15.08886462,
    "ECCENTRICITY": 0.0001729,
    "INCLINATION": 53.2192,
    "RA_OF_ASC_NODE": 255.8489,
    "ARG_OF_PERICENTER": 97.8103,
    "MEAN_ANOMALY": 262.3085,
    "EPHEMERIS_TYPE": 0,
    "CLASSIFICATION_TYPE": "U",
    "NORAD_CAT_ID": 53022,
    "ELEMENT_SET_NO": 999,
    "REV_AT_EPOCH": 18510,
    "BSTAR": 0.00045481,
    "MEAN_MOTION_DOT": 6.967e-05,
    "MEAN_MOTION_DDOT": 0.0,
    "TLE_LINE1": "1 53022U 22076AN  25315.24197833  .00006967  00000+0  45481-3 0  9994",
    "TLE_LINE2": "2 53022  53.2192 255.8489 0001729  97.8103 262.3085 15.08886462185103",
    "COMMENT": "Grouped by shell and plane from TLE"
  },
  {
    "OBJECT_NAME": "STARLINK-4284",
    "OBJECT_ID": "22076AP",
    "EPOCH": "2025-11-11T03:46:36.914016",
    "MEAN_MOTION": 15.08854979,
    "ECCENTRICITY": 0.0001646,
    "INCLINATION": 53.2188,
    "RA_OF_ASC_NODE": 256.2211,
    "ARG_OF_PERICENTER": 97.6153,
    "MEAN_ANOMALY": 262.5026,
    "EPHEMERIS_TYPE": 0,
    "CLASSIFICATION_TYPE": "U",
    "NORAD_CAT_ID": 53023,
    "ELEMENT_SET_NO": 999,
    "REV_AT_EPOCH": 18509,
    "BSTAR": 9.529800000000001e-05,
    "MEAN_MOTION_DOT": 1.23e-05,
    "MEAN_MOTION_DDOT": 0.0,
    "TLE_LINE1": "1 53023U 22076AP  25315.15737169  .00001230  00000+0  95298-4 0  9997",
    "TLE_LINE2": "2 53023  53.2188 256.2211 0001646  97.6153 262.5026 15.08854979185091",
    "COMMENT": "Grouped by shell and plane from TLE"
  },
  {
    "OBJECT_NAME": "STARLINK-4289",
    "OBJECT_ID": "22076AQ",
    "EPOCH": "2025-11-11T05:27:18.434016",
    "MEAN_MOTION": 15.08846856,
    "ECCENTRICITY": 0.0001517,
    "INCLINATION": 53.2187,
    "RA_OF_ASC_NODE": 255.9174,
    "ARG_OF_PERICENTER": 95.756,
    "MEAN_ANOMALY": 264.3605,
    "EPHEMERIS_TYPE": 0,
    "CLASSIFICATION_TYPE": "U",
    "NORAD_CAT_ID": 53024,
    "ELEMENT_SET_NO": 999,
    "REV_AT_EPOCH": 18510,
    "BSTAR": 0.00019384000000000003,
    "MEAN_MOTION_DOT": 2.799e-05,
    "MEAN_MOTION_DDOT": 0.0,
    "TLE_LINE1": "1 53024U 22076AQ  25315.22729669  .00002799  00000+0  19384-3 0  9994",
    "TLE_LINE2": "2 53024  53.2187 255.9174 0001517  95.7560 264.3605 15.08846856185103",
    "COMMENT": "Grouped by shell and plane from TLE"
  },
  {
    "OBJECT_NAME": "STARLINK-4218",
    "OBJECT_ID": "22076AR",
    "EPOCH": "2025-11-11T05:16:42.511008",
    "MEAN_MOTION": 15.08845279,
    "ECCENTRICITY": 0.0001634,
    "INCLINATION": 53.2182,
    "RA_OF_ASC_NODE": 255.9507,
    "ARG_OF_PERICENTER": 95.0237,
    "MEAN_ANOMALY": 265.0942,
    "EPHEMERIS_TYPE": 0,
    "CLASSIFICATION_TYPE": "U",
    "NORAD_CAT_ID": 53025,
    "ELEMENT_SET_NO": 999,
    "REV_AT_EPOCH": 18510,
    "BSTAR": 0.00019737,
    "MEAN_MOTION_DOT": 2.855e-05,
    "MEAN_MOTION_DDOT": 0.0,
    "TLE_LINE1": "1 53025U 22076AR  25315.21993647  .00002855  00000+0  19737-3 0  9998",
    "TLE_LINE2": "2 53025  53.2182 255.9507 0001634  95.0237 265.0942 15.08845279185103",
    "COMMENT": "Grouped by shell and plane from TLE"
  },
  {
    "OBJECT_NAME": "STARLINK-4119",
    "OBJECT_ID": "22076AS",
    "EPOCH": "2025-11-11T03:47:59.097696",
    "MEAN_MOTION": 15.0883915,
    "ECCENTRICITY": 0.0001485,
    "INCLINATION": 53.2179,
    "RA_OF_ASC_NODE": 256.1208,
    "ARG_OF_PERICENTER": 88.2875,
    "MEAN_ANOMALY": 271.8287,
    "EPHEMERIS_TYPE": 0,
    "CLASSIFICATION_TYPE": "U",
    "NORAD_CAT_ID": 53026,
    "ELEMENT_SET_NO": 999,
    "REV_AT_EPOCH": 18509,
    "BSTAR": 8.699400000000001e-05,
    "MEAN_MOTION_DOT": 1.097e-05,
    "MEAN_MOTION_DDOT": 0.0,
    "TLE_LINE1": "1 53026U 22076AS  25315.15832289  .00001097  00000+0  86994-4 0  9993",
    "TLE_LINE2": "2 53026  53.2179 256.1208 0001485  88.2875 271.8287 15.08839150185093",
    "COMMENT": "Grouped by shell and plane from TLE"
  },
  {
    "OBJECT_NAME": "STARLINK-4158",
    "OBJECT_ID": "22076AT",
    "EPOCH": "2025-11-11T06:36:11.937024",
    "MEAN_MOTION": 15.0884456,
    "ECCENTRICITY": 0.0001526,
    "INCLINATION": 53.2159,
    "RA_OF_ASC_NODE": 255.7038,
    "ARG_OF_PERICENTER": 89.0219,
    "MEAN_ANOMALY": 271.0948,
    "EPHEMERIS_TYPE": 0,
    "CLASSIFICATION_TYPE": "U",
    "NORAD_CAT_ID": 53027,
    "ELEMENT_SET_NO": 999,
    "REV_AT_EPOCH": 18511,
    "BSTAR": 0.0002517,
    "MEAN_MOTION_DOT": 3.721e-05,
    "MEAN_MOTION_DDOT": 0.0,
    "TLE_LINE1": "1 53027U 22076AT  25315.27513816  .00003721  00000+0  25170-3 0  9993",
    "TLE_LINE2": "2 53027  53.2159 255.7038 0001526  89.0219 271.0948 15.08844560185115",
    "COMMENT": "Grouped by shell and plane from TLE"
  },
  {
    "OBJECT_NAME": "STARLINK-4160",
    "OBJECT_ID": "22076AW",
    "EPOCH": "2025-11-11T05:37:56.218080",
    "MEAN_MOTION": 15.08846884,
    "ECCENTRICITY": 0.0001526,
    "INCLINATION": 53.217,
    "RA_OF_ASC_NODE": 256.0773,
    "ARG_OF_PERICENTER": 86.1697,
    "MEAN_ANOMALY": 273.947,
    "EPHEMERIS_TYPE": 0,
    "CLASSIFICATION_TYPE": "U",
    "NORAD_CAT_ID": 53030,
    "ELEMENT_SET_NO": 999,
    "REV_AT_EPOCH": 18510,
    "BSTAR": 7.9085e-05,
    "MEAN_MOTION_DOT": 9.71e-06,
    "MEAN_MOTION_DDOT": 0.0,
    "TLE_LINE1": "1 53030U 22076AW  25315.23467845  .00000971  00000+0  79085-4 0  9992",
    "TLE_LINE2": "2 53030  53.2170 256.0773 0001526  86.1697 273.9470 15.08846884185101",
    "COMMENT": "Grouped by shell and plane from TLE"
  },
  {
    "OBJECT_NAME": "STARLINK-4115",
    "OBJECT_ID": "22076AY",
    "EPOCH": "2025-11-11T06:41:29.070816",
    "MEAN_MOTION": 15.08850609,
    "ECCENTRICITY": 0.000147,
    "INCLINATION": 53.2176,
    "RA_OF_ASC_NODE": 255.6858,
    "ARG_OF_PERICENTER": 108.6313,
    "MEAN_ANOMALY": 251.4839,
    "EPHEMERIS_TYPE": 0,
    "CLASSIFICATION_TYPE": "U",
    "NORAD_CAT_ID": 53032,
    "ELEMENT_SET_NO": 999,
    "REV_AT_EPOCH": 18511,
    "BSTAR": 0.00028647,
    "MEAN_MOTION_DOT": 4.275e-05,
    "MEAN_MOTION_DDOT": 0.0,
    "TLE_LINE1": "1 53032U 22076AY  25315.27880869  .00004275  00000+0  28647-3 0  9991",
    "TLE_LINE2": "2 53032  53.2176 255.6858 0001470 108.6313 251.4839 15.08850609185112",
    "COMMENT": "Grouped by shell and plane from TLE"
  },
  {
    "OBJECT_NAME": "STARLINK-5699",
    "OBJECT_ID": "23015A",
    "EPOCH": "2025-11-11T04:34:57.013824",
    "MEAN_MOTION": 15.02542222,
    "ECCENTRICITY": 8.67e-05,
    "INCLINATION": 43.0031,
    "RA_OF_ASC_NODE": 250.3175,
    "ARG_OF_PERICENTER": 274.6243,
    "MEAN_ANOMALY": 85.45,
    "EPHEMERIS_TYPE": 0,
    "CLASSIFICATION_TYPE": "U",
    "NORAD_CAT_ID": 55449,
    "ELEMENT_SET_NO": 999,
    "REV_AT_EPOCH": 15386,
    "BSTAR": 5.1873e-05,
    "MEAN_MOTION_DOT": 4.97e-06,
    "MEAN_MOTION_DDOT": 0.0,
    "TLE_LINE1": "1 55449U 23015A   25315.19093766  .00000497  00000+0  51873-4 0  9992",
    "TLE_LINE2": "2 55449  43.0031 250.3175 0000867 274.6243  85.4500 15.02542222153862",
    "COMMENT": "Grouped by shell and plane from TLE"
  },
  {
    "OBJECT_NAME": "STARLINK-5686",
    "OBJECT_ID": "23015B",
    "EPOCH": "2025-11-11T04:39:44.700768",
    "MEAN_MOTION": 15.02536158,
    "ECCENTRICITY": 0.0001343,
    "INCLINATION": 43.0061,
    "RA_OF_ASC_NODE": 250.3426,
    "ARG_OF_PERICENTER": 275.5106,
    "MEAN_ANOMALY": 84.5583,
    "EPHEMERIS_TYPE": 0,
    "CLASSIFICATION_TYPE": "U",
    "NORAD_CAT_ID": 55450,
    "ELEMENT_SET_NO": 999,
    "REV_AT_EPOCH": 15386,
    "BSTAR": 0.0,
    "MEAN_MOTION_DOT": -7.53e-06,
    "MEAN_MOTION_DDOT": 0.0,
    "TLE_LINE1": "1 55450U 23015B   25315.19426737 -.00000753  00000+0 -40683-4 0  9996",
    "TLE_LINE2": "2 55450  43.0061 250.3426 0001343 275.5106  84.5583 15.02536158153866",
    "COMMENT": "Grouped by shell and plane from TLE"
  },
  {
    "OBJECT_NAME": "STARLINK-5656",
    "OBJECT_ID": "23015C",
    "EPOCH": "2025-11-11T04:30:09.122112",
    "MEAN_MOTION": 15.025437,
    "ECCENTRICITY": 0.0001098,
    "INCLINATION": 43.0037,
    "RA_OF_ASC_NODE": 250.2944,
    "ARG_OF_PERICENTER": 277.449,
    "MEAN_ANOMALY": 82.6227,
    "EPHEMERIS_TYPE": 0,
    "CLASSIFICATION_TYPE": "U",
    "NORAD_CAT_ID": 55451,
    "ELEMENT_SET_NO": 999,
    "REV_AT_EPOCH": 15292,
    "BSTAR": 0.00017085,
    "MEAN_MOTION_DOT": 2.105e-05,
    "MEAN_MOTION_DDOT": 0.0,
    "TLE_LINE1": "1 55451U 23015C   25315.18760558  .00002105  00000+0  17085-3 0  9998",
    "TLE_LINE2": "2 55451  43.0037 250.2944 0001098 277.4490  82.6227 15.02543700152929",
    "COMMENT": "Grouped by shell and plane from TLE"
  },
  {
    "OBJECT_NAME": "STARLINK-5683",
    "OBJECT_ID": "23015D",
    "EPOCH": "2025-11-11T04:23:45.346272",
    "MEAN_MOTION": 15.02538008,
    "ECCENTRICITY": 0.0001136,
    "INCLINATION": 43.0037,
    "RA_OF_ASC_NODE": 250.2587,
    "ARG_OF_PERICENTER": 274.3348,
    "MEAN_ANOMALY": 85.7364,
    "EPHEMERIS_TYPE": 0,
    "CLASSIFICATION_TYPE": "U",
    "NORAD_CAT_ID": 55452,
    "ELEMENT_SET_NO": 999,
    "REV_AT_EPOCH": 15292,
    "BSTAR": 0.00012168,
    "MEAN_MOTION_DOT": 1.44e-05,
    "MEAN_MOTION_DDOT": 0.0,
    "TLE_LINE1": "1 55452U 23015D   25315.18316373  .00001440  00000+0  12168-3 0  9999",
    "TLE_LINE2": "2 55452  43.0037 250.2587 0001136 274.3348  85.7364 15.02538008152925",
    "COMMENT": "Grouped by shell and plane from TLE"
  }
]